[
    {
        "Altitude(m)": 555783.455728519,
        "Argument of Periapsis(deg)": 0.006622991110713501,
        "Eccentricity": 0.0,
        "Inclination(deg)": 53.0,
        "Latitude(deg)": 34.24813508155429,
        "Longitude(deg)": -165.09359755341106,
        "Mean Anomaly(deg)": 44.637092867577586,
        "RAAN(deg)": 264.990143368528,
        "Satellite Name": "Starlink Shell 1 1168",
        "Satellite Number": 1168,
        "Semi-Major Axis(m)": 6931778.249405717,
        "Time(s)": 190
    },
    {
        "Altitude(m)": 555864.6351894152,
        "Argument of Periapsis(deg)": 0.0069715695902247375,
        "Eccentricity": 0.0,
        "Inclination(deg)": 53.0,
        "Latitude(deg)": 34.67905448765562,
        "Longitude(deg)": -164.58190270023334,
        "Mean Anomaly(deg)": 45.26392407113428,
        "RAAN(deg)": 264.9896245984506,
        "Satellite Name": "Starlink Shell 1 1168",
        "Satellite Number": 1168,
        "Semi-Major Axis(m)": 6931778.249405717,
        "Time(s)": 200
    },
    {
        "Altitude(m)": 555946.295309896,
        "Argument of Periapsis(deg)": 0.007320148069735974,
        "Eccentricity": 0.0,
        "Inclination(deg)": 53.0,
        "Latitude(deg)": 35.10740870748889,
        "Longitude(deg)": -164.06447196563286,
        "Mean Anomaly(deg)": 45.890755274691024,
        "RAAN(deg)": 264.9891058283731,
        "Satellite Name": "Starlink Shell 1 1168",
        "Satellite Number": 1168,
        "Semi-Major Axis(m)": 6931778.249405717,
        "Time(s)": 210
    },
    {
        "Altitude(m)": 556028.3803682167,
        "Argument of Periapsis(deg)": 0.007668726549247212,
        "Eccentricity": 0.0,
        "Inclination(deg)": 53.0,
        "Latitude(deg)": 35.533130649437794,
        "Longitude(deg)": -163.54118800426818,
        "Mean Anomaly(deg)": 46.51758647824772,
        "RAAN(deg)": 264.9885870582956,
        "Satellite Name": "Starlink Shell 1 1168",
        "Satellite Number": 1168,
        "Semi-Major Axis(m)": 6931778.249405717,
        "Time(s)": 220
    },
    {
        "Altitude(m)": 556110.8346347758,
        "Argument of Periapsis(deg)": 0.00801730502875845,
        "Eccentricity": 0.0,
        "Inclination(deg)": 53.0,
        "Latitude(deg)": 35.95615167671016,
        "Longitude(deg)": -163.01193272117203,
        "Mean Anomaly(deg)": 47.14441768180447,
        "RAAN(deg)": 264.98806828821813,
        "Satellite Name": "Starlink Shell 1 1168",
        "Satellite Number": 1168,
        "Semi-Major Axis(m)": 6931778.249405717,
        "Time(s)": 230
    },
    {
        "Altitude(m)": 556193.60240087,
        "Argument of Periapsis(deg)": 0.008365883508269684,
        "Eccentricity": 0.0,
        "Inclination(deg)": 53.0,
        "Latitude(deg)": 36.376401575968735,
        "Longitude(deg)": -162.47658686090875,
        "Mean Anomaly(deg)": 47.77124888536117,
        "RAAN(deg)": 264.98754951814067,
        "Satellite Name": "Starlink Shell 1 1168",
        "Satellite Number": 1168,
        "Semi-Major Axis(m)": 6931778.249405717,
        "Time(s)": 240
    },
    {
        "Altitude(m)": 556276.6280074017,
        "Argument of Periapsis(deg)": 0.008714461987780921,
        "Eccentricity": 0.0,
        "Inclination(deg)": 53.0,
        "Latitude(deg)": 36.79380852663579,
        "Longitude(deg)": -161.935031119273,
        "Mean Anomaly(deg)": 48.39808008891786,
        "RAAN(deg)": 264.9870307480632,
        "Satellite Name": "Starlink Shell 1 1168",
        "Satellite Number": 1168,
        "Semi-Major Axis(m)": 6931778.249405717,
        "Time(s)": 250
    },
    {
        "Altitude(m)": 556359.8558735204,
        "Argument of Periapsis(deg)": 0.009063040467292158,
        "Eccentricity": 0.0,
        "Inclination(deg)": 53.0,
        "Latitude(deg)": 37.20829907100971,
        "Longitude(deg)": -161.38714575235343,
        "Mean Anomaly(deg)": 49.024911292474606,
        "RAAN(deg)": 264.98651197798574,
        "Satellite Name": "Starlink Shell 1 1168",
        "Satellite Number": 1168,
        "Semi-Major Axis(m)": 6931778.249405717,
        "Time(s)": 260
    },
    {
        "Altitude(m)": 556443.2305251592,
        "Argument of Periapsis(deg)": 0.009411618946803396,
        "Eccentricity": 0.0,
        "Inclination(deg)": 53.0,
        "Latitude(deg)": 37.61979808535333,
        "Longitude(deg)": -160.83281019641979,
        "Mean Anomaly(deg)": 49.651742496031304,
        "RAAN(deg)": 264.9859932079082,
        "Satellite Name": "Starlink Shell 1 1168",
        "Satellite Number": 1168,
        "Semi-Major Axis(m)": 6931778.249405717,
        "Time(s)": 270
    },
    {
        "Altitude(m)": 556526.6966235042,
        "Argument of Periapsis(deg)": 0.009760197426314633,
        "Eccentricity": 0.0,
        "Inclination(deg)": 53.0,
        "Latitude(deg)": 38.028228752126104,
        "Longitude(deg)": -160.27190421210037,
        "Mean Anomaly(deg)": 50.27857369958805,
        "RAAN(deg)": 264.98547443783076,
        "Satellite Name": "Starlink Shell 1 1168",
        "Satellite Number": 1168,
        "Semi-Major Axis(m)": 6931778.249405717,
        "Time(s)": 280
    },
    {
        "Altitude(m)": 556610.1989933202,
        "Argument of Periapsis(deg)": 0.01010877590582587,
        "Eccentricity": 0.0,
        "Inclination(deg)": 53.0,
        "Latitude(deg)": 38.433512533537034,
        "Longitude(deg)": -159.7043075277127,
        "Mean Anomaly(deg)": 50.905404903144685,
        "RAAN(deg)": 264.9849556677533,
        "Satellite Name": "Starlink Shell 1 1168",
        "Satellite Number": 1168,
        "Semi-Major Axis(m)": 6931778.249405717,
        "Time(s)": 290
    },
    {
        "Altitude(m)": 556693.682651179,
        "Argument of Periapsis(deg)": 0.010457354385337106,
        "Eccentricity": 0.0,
        "Inclination(deg)": 53.0,
        "Latitude(deg)": 38.83556914661815,
        "Longitude(deg)": -159.12989949523137,
        "Mean Anomaly(deg)": 51.53223610670144,
        "RAAN(deg)": 264.98443689767583,
        "Satellite Name": "Starlink Shell 1 1168",
        "Satellite Number": 1168,
        "Semi-Major Axis(m)": 6931778.249405717,
        "Time(s)": 300
    },
    {
        "Altitude(m)": 556777.0928335206,
        "Argument of Periapsis(deg)": 0.010805932864848343,
        "Eccentricity": 0.0,
        "Inclination(deg)": 53.0,
        "Latitude(deg)": 39.23431654003135,
        "Longitude(deg)": -158.54856027238253,
        "Mean Anomaly(deg)": 52.15906731025819,
        "RAAN(deg)": 264.9839181275983,
        "Satellite Name": "Starlink Shell 1 1168",
        "Satellite Number": 1168,
        "Semi-Major Axis(m)": 6931778.249405717,
        "Time(s)": 310
    },
    {
        "Altitude(m)": 556860.3750245897,
        "Argument of Periapsis(deg)": 0.01115451134435958,
        "Eccentricity": 0.0,
        "Inclination(deg)": 53.0,
        "Latitude(deg)": 39.62967087283021,
        "Longitude(deg)": -157.96017050573369,
        "Mean Anomaly(deg)": 52.785898513814885,
        "RAAN(deg)": 264.98339935752085,
        "Satellite Name": "Starlink Shell 1 1168",
        "Satellite Number": 1168,
        "Semi-Major Axis(m)": 6931778.249405717,
        "Time(s)": 320
    },
    {
        "Altitude(m)": 556943.4749841876,
        "Argument of Periapsis(deg)": 0.011503089823870818,
        "Eccentricity": 0.0,
        "Inclination(deg)": 53.0,
        "Latitude(deg)": 40.021546495419635,
        "Longitude(deg)": -157.3646110282621,
        "Mean Anomaly(deg)": 53.41272971737163,
        "RAAN(deg)": 264.98288058744345,
        "Satellite Name": "Starlink Shell 1 1168",
        "Satellite Number": 1168,
        "Semi-Major Axis(m)": 6931778.249405717,
        "Time(s)": 330
    },
    {
        "Altitude(m)": 557026.3387752536,
        "Argument of Periapsis(deg)": 0.011851668303382053,
        "Eccentricity": 0.0,
        "Inclination(deg)": 53.0,
        "Latitude(deg)": 40.409855932973144,
        "Longitude(deg)": -156.76176408486978,
        "Mean Anomaly(deg)": 54.03956092092827,
        "RAAN(deg)": 264.9823618173659,
        "Satellite Name": "Starlink Shell 1 1168",
        "Satellite Number": 1168,
        "Semi-Major Axis(m)": 6931778.249405717,
        "Time(s)": 340
    },
    {
        "Altitude(m)": 557108.9127912455,
        "Argument of Periapsis(deg)": 0.012200246782893292,
        "Eccentricity": 0.0,
        "Inclination(deg)": 53.0,
        "Latitude(deg)": 40.79450987157569,
        "Longitude(deg)": -156.1515130606828,
        "Mean Anomaly(deg)": 54.666392124485014,
        "RAAN(deg)": 264.98184304728846,
        "Satellite Name": "Starlink Shell 1 1168",
        "Satellite Number": 1168,
        "Semi-Major Axis(m)": 6931778.249405717,
        "Time(s)": 350
    },
    {
        "Altitude(m)": 557191.1437833341,
        "Argument of Periapsis(deg)": 0.012548825262404526,
        "Eccentricity": 0.0,
        "Inclination(deg)": 53.0,
        "Latitude(deg)": 41.17541714738202,
        "Longitude(deg)": -155.53374222556317,
        "Mean Anomaly(deg)": 55.29322332804176,
        "RAAN(deg)": 264.981324277211,
        "Satellite Name": "Starlink Shell 1 1168",
        "Satellite Number": 1168,
        "Semi-Major Axis(m)": 6931778.249405717,
        "Time(s)": 360
    },
    {
        "Altitude(m)": 557272.978887353,
        "Argument of Periapsis(deg)": 0.012897403741915765,
        "Eccentricity": 0.0,
        "Inclination(deg)": 53.0,
        "Latitude(deg)": 41.55248473909994,
        "Longitude(deg)": -154.90833800822935,
        "Mean Anomaly(deg)": 55.92005453159846,
        "RAAN(deg)": 264.9808055071335,
        "Satellite Name": "Starlink Shell 1 1168",
        "Satellite Number": 1168,
        "Semi-Major Axis(m)": 6931778.249405717,
        "Time(s)": 370
    }
]